start=new Date('2021-09-04T00:00:00.000Z').valueOf();
sats=[{"BSTAR":"0.00007688600000","OBJECT_NAME":"STARLINK-1525","ARG_OF_PERICENTER":"99.0247","ELEMENT_SET_NO":"999","OBJECT_ID":"2020-055AR","MEAN_ANOMALY":"261.0860","ECCENTRICITY":"0.00010420","NORAD_CAT_ID":"46066","REF_FRAME":"TEME","GP_ID":"184048560","DECAY_DATE":null,"APOAPSIS":"547.944","OBJECT_TYPE":"PAYLOAD","COUNTRY_CODE":"US","MEAN_MOTION_DOT":"0.00000864","EPOCH":"2021-09-03T15:34:07.796640","REV_AT_EPOCH":"6090","LAUNCH_DATE":"2020-08-07","SEMIMAJOR_AXIS":"6925.357","RA_OF_ASC_NODE":"294.9669","TIME_SYSTEM":"UTC","SITE":"AFETR","INCLINATION":"53.0546","MEAN_MOTION":"15.06397144","RCS_SIZE":"LARGE","MEAN_MOTION_DDOT":"0.0000000000000","PERIAPSIS":"546.501","CENTER_NAME":"EARTH","MEAN_ELEMENT_THEORY":"SGP4","TLE_LINE1":"1 46066U 20055AR  21246.64870135  .00000864  00000-0  76886-4 0  9990","FILE":"3108332","TLE_LINE2":"2 46066  53.0546 294.9669 0001042  99.0247 261.0860 15.06397144 60908","PERIOD":"95.592","EPHEMERIS_TYPE":"0","CLASSIFICATION_TYPE":"U"},{"TIME_SYSTEM":"UTC","SITE":"AFETR","RA_OF_ASC_NODE":"294.9568","SEMIMAJOR_AXIS":"6925.355","RCS_SIZE":"LARGE","INCLINATION":"53.0541","MEAN_MOTION":"15.06397982","MEAN_ELEMENT_THEORY":"SGP4","CENTER_NAME":"EARTH","PERIAPSIS":"546.526","MEAN_MOTION_DDOT":"0.0000000000000","TLE_LINE2":"2 46067  53.0541 294.9568 0001002  98.8488 261.2615 15.06397982 60913","FILE":"3108332","CLASSIFICATION_TYPE":"U","PERIOD":"95.592","EPHEMERIS_TYPE":"0","TLE_LINE1":"1 46067U 20055AS  21246.65238891  .00000784  00000-0  71538-4 0  9999","ARG_OF_PERICENTER":"98.8488","BSTAR":"0.00007153800000","OBJECT_NAME":"STARLINK-1529","MEAN_ANOMALY":"261.2615","REF_FRAME":"TEME","ECCENTRICITY":"0.00010020","NORAD_CAT_ID":"46067","OBJECT_ID":"2020-055AS","ELEMENT_SET_NO":"999","APOAPSIS":"547.914","DECAY_DATE":null,"GP_ID":"184048312","EPOCH":"2021-09-03T15:39:26.401824","MEAN_MOTION_DOT":"0.00000784","REV_AT_EPOCH":"6091","LAUNCH_DATE":"2020-08-07","COUNTRY_CODE":"US","OBJECT_TYPE":"PAYLOAD"},{"APOAPSIS":"547.780","DECAY_DATE":null,"GP_ID":"184047062","LAUNCH_DATE":"2020-08-07","REV_AT_EPOCH":"6089","EPOCH":"2021-09-03T12:44:16.246176","MEAN_MOTION_DOT":"0.00000914","COUNTRY_CODE":"US","OBJECT_TYPE":"PAYLOAD","ARG_OF_PERICENTER":"98.6154","BSTAR":"0.00008021800000","OBJECT_NAME":"STARLINK-1532","REF_FRAME":"TEME","NORAD_CAT_ID":"46068","ECCENTRICITY":"0.00008150","MEAN_ANOMALY":"261.4928","ELEMENT_SET_NO":"999","OBJECT_ID":"2020-055AT","MEAN_ELEMENT_THEORY":"SGP4","PERIAPSIS":"546.651","CENTER_NAME":"EARTH","MEAN_MOTION_DDOT":"0.0000000000000","CLASSIFICATION_TYPE":"U","PERIOD":"95.592","EPHEMERIS_TYPE":"0","TLE_LINE2":"2 46068  53.0525 295.5042 0000815  98.6154 261.4928 15.06399333 60897","FILE":"3108332","TLE_LINE1":"1 46068U 20055AT  21246.53074359  .00000914  00000-0  80218-4 0  9994","SITE":"AFETR","TIME_SYSTEM":"UTC","RA_OF_ASC_NODE":"295.5042","SEMIMAJOR_AXIS":"6925.351","RCS_SIZE":"LARGE","MEAN_MOTION":"15.06399333","INCLINATION":"53.0525"},{"MEAN_ELEMENT_THEORY":"SGP4","PERIAPSIS":"546.457","CENTER_NAME":"EARTH","MEAN_MOTION_DDOT":"0.0000000000000","TLE_LINE2":"2 46069  53.0535 295.1378 0001074  92.4961 267.6151 15.06404147 60912","FILE":"3108332","EPHEMERIS_TYPE":"0","PERIOD":"95.592","CLASSIFICATION_TYPE":"U","TLE_LINE1":"1 46069U 20055AU  21246.61184403  .00000895  00000-0  78924-4 0  9995","TIME_SYSTEM":"UTC","SITE":"AFETR","RA_OF_ASC_NODE":"295.1378","SEMIMAJOR_AXIS":"6925.336","RCS_SIZE":"LARGE","INCLINATION":"53.0535","MEAN_MOTION":"15.06404147","APOAPSIS":"547.945","DECAY_DATE":null,"GP_ID":"184047813","EPOCH":"2021-09-03T14:41:03.324192","MEAN_MOTION_DOT":"0.00000895","LAUNCH_DATE":"2020-08-07","REV_AT_EPOCH":"6091","COUNTRY_CODE":"US","OBJECT_TYPE":"PAYLOAD","ARG_OF_PERICENTER":"92.4961","BSTAR":"0.00007892400000","OBJECT_NAME":"STARLINK-1533","MEAN_ANOMALY":"267.6151","REF_FRAME":"TEME","NORAD_CAT_ID":"46069","ECCENTRICITY":"0.00010740","ELEMENT_SET_NO":"999","OBJECT_ID":"2020-055AU"},{"EPOCH":"2021-09-03T15:02:15.898560","MEAN_MOTION_DOT":"0.00001321","LAUNCH_DATE":"2020-08-07","REV_AT_EPOCH":"6091","COUNTRY_CODE":"US","OBJECT_TYPE":"PAYLOAD","APOAPSIS":"547.729","DECAY_DATE":null,"GP_ID":"184048060","MEAN_ANOMALY":"271.5256","REF_FRAME":"TEME","ECCENTRICITY":"0.00007670","NORAD_CAT_ID":"46070","OBJECT_ID":"2020-055AV","ELEMENT_SET_NO":"999","ARG_OF_PERICENTER":"88.5821","OBJECT_NAME":"STARLINK-1536","BSTAR":"0.00010752000000","TLE_LINE2":"2 46070  53.0534 295.0715 0000767  88.5821 271.5256 15.06405001 60916","FILE":"3108332","PERIOD":"95.592","CLASSIFICATION_TYPE":"U","EPHEMERIS_TYPE":"0","TLE_LINE1":"1 46070U 20055AV  21246.62657290  .00001321  00000-0  10752-3 0  9996","MEAN_ELEMENT_THEORY":"SGP4","PERIAPSIS":"546.667","CENTER_NAME":"EARTH","MEAN_MOTION_DDOT":"0.0000000000000","RCS_SIZE":"LARGE","INCLINATION":"53.0534","MEAN_MOTION":"15.06405001","TIME_SYSTEM":"UTC","SITE":"AFETR","RA_OF_ASC_NODE":"295.0715","SEMIMAJOR_AXIS":"6925.333"},{"SEMIMAJOR_AXIS":"6925.371","RA_OF_ASC_NODE":"294.9888","TIME_SYSTEM":"UTC","SITE":"AFETR","INCLINATION":"53.0552","MEAN_MOTION":"15.06392655","RCS_SIZE":"LARGE","MEAN_MOTION_DDOT":"0.0000000000000","PERIAPSIS":"546.615","CENTER_NAME":"EARTH","MEAN_ELEMENT_THEORY":"SGP4","TLE_LINE1":"1 46071U 20055AW  21246.64503377  .00001388  00000-0  11207-3 0  9994","FILE":"3108332","TLE_LINE2":"2 46071  53.0552 294.9888 0000897 108.3440 251.7646 15.06392655 60911","PERIOD":"95.593","CLASSIFICATION_TYPE":"U","EPHEMERIS_TYPE":"0","OBJECT_NAME":"STARLINK-1538","BSTAR":"0.00011207000000","ARG_OF_PERICENTER":"108.3440","OBJECT_ID":"2020-055AW","ELEMENT_SET_NO":"999","MEAN_ANOMALY":"251.7646","ECCENTRICITY":"0.00008970","NORAD_CAT_ID":"46071","REF_FRAME":"TEME","GP_ID":"184048813","DECAY_DATE":null,"APOAPSIS":"547.857","OBJECT_TYPE":"PAYLOAD","COUNTRY_CODE":"US","MEAN_MOTION_DOT":"0.00001388","EPOCH":"2021-09-03T15:28:50.917728","REV_AT_EPOCH":"6091","LAUNCH_DATE":"2020-08-07"},{"SEMIMAJOR_AXIS":"6925.335","RA_OF_ASC_NODE":"296.0546","SITE":"AFETR","TIME_SYSTEM":"UTC","MEAN_MOTION":"15.06404473","INCLINATION":"53.0534","RCS_SIZE":"LARGE","MEAN_MOTION_DDOT":"0.0000000000000","CENTER_NAME":"EARTH","PERIAPSIS":"546.725","MEAN_ELEMENT_THEORY":"SGP4","TLE_LINE1":"1 46072U 20055AX  21246.40448826  .00003037  00000-0  22262-3 0  9992","PERIOD":"95.592","CLASSIFICATION_TYPE":"U","EPHEMERIS_TYPE":"0","FILE":"3107903","TLE_LINE2":"2 46072  53.0534 296.0546 0000685 110.2360 249.8702 15.06404473 60861","BSTAR":"0.00022262000000","OBJECT_NAME":"STARLINK-1539","ARG_OF_PERICENTER":"110.2360","ELEMENT_SET_NO":"999","OBJECT_ID":"2020-055AX","ECCENTRICITY":"0.00006850","NORAD_CAT_ID":"46072","REF_FRAME":"TEME","MEAN_ANOMALY":"249.8702","GP_ID":"184014365","DECAY_DATE":null,"APOAPSIS":"547.674","OBJECT_TYPE":"PAYLOAD","COUNTRY_CODE":"US","LAUNCH_DATE":"2020-08-07","REV_AT_EPOCH":"6086","MEAN_MOTION_DOT":"0.00003037","EPOCH":"2021-09-03T09:42:27.785664"},{"LAUNCH_DATE":"2020-08-07","REV_AT_EPOCH":"6090","MEAN_MOTION_DOT":"0.00001121","EPOCH":"2021-09-03T14:51:41.480640","OBJECT_TYPE":"PAYLOAD","COUNTRY_CODE":"US","APOAPSIS":"547.944","GP_ID":"184048314","DECAY_DATE":null,"ECCENTRICITY":"0.00010300","NORAD_CAT_ID":"46073","REF_FRAME":"TEME","MEAN_ANOMALY":"252.7755","ELEMENT_SET_NO":"999","OBJECT_ID":"2020-055AY","ARG_OF_PERICENTER":"107.3347","OBJECT_NAME":"STARLINK-1542","BSTAR":"0.00009414300000","PERIOD":"95.592","CLASSIFICATION_TYPE":"U","EPHEMERIS_TYPE":"0","FILE":"3108332","TLE_LINE2":"2 46073  53.0556 295.1016 0001030 107.3347 252.7755 15.06394448 60901","TLE_LINE1":"1 46073U 20055AY  21246.61923010  .00001121  00000-0  94143-4 0  9999","MEAN_ELEMENT_THEORY":"SGP4","MEAN_MOTION_DDOT":"0.0000000000000","PERIAPSIS":"546.517","CENTER_NAME":"EARTH","RCS_SIZE":"LARGE","MEAN_MOTION":"15.06394448","INCLINATION":"53.0556","SITE":"AFETR","TIME_SYSTEM":"UTC","SEMIMAJOR_AXIS":"6925.366","RA_OF_ASC_NODE":"295.1016"},{"APOAPSIS":"547.749","DECAY_DATE":null,"GP_ID":"184048561","EPOCH":"2021-09-03T14:30:26.129376","MEAN_MOTION_DOT":"0.00001154","REV_AT_EPOCH":"6089","LAUNCH_DATE":"2020-08-07","COUNTRY_CODE":"US","OBJECT_TYPE":"PAYLOAD","ARG_OF_PERICENTER":"104.8741","BSTAR":"0.00009631200000","OBJECT_NAME":"STARLINK-1549","MEAN_ANOMALY":"255.2333","REF_FRAME":"TEME","ECCENTRICITY":"0.00007670","NORAD_CAT_ID":"46074","ELEMENT_SET_NO":"999","OBJECT_ID":"2020-055AZ","MEAN_ELEMENT_THEORY":"SGP4","CENTER_NAME":"EARTH","PERIAPSIS":"546.686","MEAN_MOTION_DDOT":"0.0000000000000","TLE_LINE2":"2 46074  53.0539 295.1701 0000767 104.8741 255.2333 15.06398742 60899","FILE":"3108332","CLASSIFICATION_TYPE":"U","PERIOD":"95.592","EPHEMERIS_TYPE":"0","TLE_LINE1":"1 46074U 20055AZ  21246.60446909  .00001154  00000-0  96312-4 0  9992","TIME_SYSTEM":"UTC","SITE":"AFETR","RA_OF_ASC_NODE":"295.1701","SEMIMAJOR_AXIS":"6925.352","RCS_SIZE":"LARGE","INCLINATION":"53.0539","MEAN_MOTION":"15.06398742"},{"OBJECT_ID":"2020-055BA","ELEMENT_SET_NO":"999","ECCENTRICITY":"0.00008450","NORAD_CAT_ID":"46075","REF_FRAME":"TEME","MEAN_ANOMALY":"261.6318","BSTAR":"0.00010225000000","OBJECT_NAME":"STARLINK-1551","ARG_OF_PERICENTER":"98.4767","OBJECT_TYPE":"PAYLOAD","COUNTRY_CODE":"US","LAUNCH_DATE":"2020-08-07","REV_AT_EPOCH":"6090","MEAN_MOTION_DOT":"0.00001242","EPOCH":"2021-09-03T15:07:36.833088","GP_ID":"184048313","DECAY_DATE":null,"APOAPSIS":"547.816","MEAN_MOTION":"15.06394260","INCLINATION":"53.0554","RCS_SIZE":"LARGE","SEMIMAJOR_AXIS":"6925.366","RA_OF_ASC_NODE":"295.0557","SITE":"AFETR","TIME_SYSTEM":"UTC","TLE_LINE1":"1 46075U 20055BA  21246.63028742  .00001242  00000-0  10225-3 0  9993","PERIOD":"95.593","EPHEMERIS_TYPE":"0","CLASSIFICATION_TYPE":"U","FILE":"3108332","TLE_LINE2":"2 46075  53.0554 295.0557 0000845  98.4767 261.6318 15.06394260 60905","MEAN_MOTION_DDOT":"0.0000000000000","PERIAPSIS":"546.646","CENTER_NAME":"EARTH","MEAN_ELEMENT_THEORY":"SGP4"}];
